format  = 'OEF2.0'       ! file format
rectype = 'ML'           ! record type (1L/ML)
refsys  = ECLM J2000     ! default reference system
END_OF_HEADER
153814
! Cartesian position and velocity vectors
CAR  -9.80011991727841E-02  1.92497762617696E+00  5.44289705315085E-03 -1.05715636909517E-02  4.71731580611067E-03 -3.30185032248687E-04
MJD     54804.336280497 TDT
MAG  17.997  0.150
! Non-grav parameters: model used, actual number in use, dimension
LSP   0  0    6
! RMS    8.11161E-05   2.03894E-04   1.33485E-06   1.74815E-06   1.54769E-06   7.26370E-08
! EIG   2.11020E-08   2.65162E-08   2.95327E-07   5.11302E-07   1.00445E-06   2.19450E-04
! WEA  -0.36961   0.92911   0.00561   0.00794  -0.00672  -0.00031
COV   6.579820813895021E-09 -1.653781519377081E-08 -9.996291124081275E-11
COV  -1.414654459771304E-10  1.199674948218591E-10  5.526647310529874E-12
COV   4.157265115158749E-08  2.511630365198672E-10  3.553351882780708E-10
COV  -3.006923031517022E-10 -1.389087507446909E-11  1.781822904979186E-12
COV   2.152457322427208E-12 -1.834405729763700E-12 -9.093606072326421E-14
COV   3.056037822311394E-12 -2.632789315403640E-12 -1.188011907871835E-13
COV   2.395331332707158E-12  1.005667264560900E-13  5.276130563437759E-15
NOR   3.266071728560908E+12  1.027526716628304E+12  2.130358051547774E+11
NOR   3.597824719044377E+13  5.051576327625615E+12  1.597661861242443E+12
NOR   3.635714542409272E+11  6.213571217795692E+10  5.155868780245540E+12
NOR  -1.305368320794909E+11  5.400313607903598E+11  5.401277683851137E+12
NOR   1.599078206309543E+12  5.253733816178320E+11  5.952352420068956E+13
NOR   1.349417274365740E+15  3.265284420031931E+14  7.587804709052873E+13
NOR   8.936908976238144E+13  2.286424953686211E+13  2.236420958490165E+15
!MOID  0.00193    0
!NODES -0.01471  1.02814
153814
! Keplerian elements: a, e, i, long. node, arg. peric., mean anomaly
KEP   1.7112081331216020E+00 0.466931088909272   1.9219105611082 277.7417422019809  44.2624615007824  79.9496353723941
MJD     54804.336280497 TDT
MAG  17.997  0.150
! Non-grav parameters: model used, actual number in use, dimension
LSP   0  0    6
! RMS    1.88652E-04   3.89995E-05   7.27465E-04   9.57645E-04   2.37932E-02   3.17473E-02
! EIG   1.30012E-07   2.41221E-06   4.40345E-06   7.51106E-06   4.80051E-05   7.17381E-04
! WEA   0.26015  -0.04165  -0.01691  -0.02086   0.57760  -0.77217
COV   3.558961525536256E-08 -4.897817668890299E-09 -1.254262246641593E-07
COV  -1.542534285835259E-07  4.388115283983747E-06 -5.942607303163483E-06
COV   1.520960777224803E-09  2.472326264911795E-08  3.041992530893668E-08
COV  -7.483278233983046E-07  9.302102107817941E-07  5.292047850234877E-07
COV   6.117186398094852E-07 -1.673629904938770E-05  2.195343835826456E-05
COV   9.170843082379798E-07 -2.075732118627601E-05  2.701421522445274E-05
COV   5.661163180267111E-04 -7.523318636472391E-04  1.007892749153054E-03
NOR   3.736120780608604E+11 -3.075230808504677E+12 -1.562141303653883E+07
NOR  -3.740362636806704E+10 -3.748116715439103E+10 -2.193354683490550E+10
NOR   2.721701512181935E+13 -1.230665045796975E+09  3.331633430150492E+11
NOR   3.343228357752352E+11  1.973981447004771E+11  5.124229429104845E+07
NOR  -6.816669561616892E+06 -1.172974180054889E+07 -8.645275817468783E+06
NOR   4.090960441571273E+09  4.097256268800928E+09  2.420837934729548E+09
NOR   4.110876371725958E+09  2.429415487224805E+09  1.437212653267756E+09
